{
    "type": "FeatureCollection",
    "name": "MKWC",
    "crs": {
        "type": "name",
        "properties": { "name": "urn:ogc:def:crs:OGC:1.3:CRS84" }
    },
    "features": [
        {
            "type": "Feature",
            "properties": {
                "fid": 1,
                "visibility": -1,
                "tessellate": 1,
                "icon": null,
                "layer": "MKWC_Shapefile",
                "Name": "MKWC",
                "path": "C:/Users/HP/Downloads/MKWC_Shapefile.gpkg|layername=MKWC_Shapefile",
                "Area": null,
                "extrude": 0,
                "descriptio": null,
                "end": null,
                "begin": null,
                "altitudeMo": null,
                "timestamp": null
            },
            "geometry": {
                "type": "MultiPolygon",
                "coordinates": [
                    [
                        [
                            [37.113909594119747, -0.037117579523187],
                            [37.11627743159476, -0.031962813435857],
                            [37.118257251403755, -0.027539381937105],
                            [37.119264975237208, -0.025260789228924],
                            [37.120286101422657, -0.022991109551093],
                            [37.1210174551723, -0.024119279551737],
                            [37.123880134939597, -0.02847580590255],
                            [37.125984902032322, -0.029269545205258],
                            [37.128722725389473, -0.030326359857945],
                            [37.129583396448218, -0.029706544679953],
                            [37.131050407165176, -0.030562652836044],
                            [37.133168461257227, -0.030522563558163],
                            [37.133119467393158, -0.03219026536561],
                            [37.132941077078414, -0.033090967033264],
                            [37.132018037184253, -0.033135605406694],
                            [37.130885426182338, -0.032872507131708],
                            [37.129770629077932, -0.033269354778829],
                            [37.129306922734756, -0.033554740777037],
                            [37.128731641348331, -0.033684073564111],
                            [37.128174269233547, -0.034410874957321],
                            [37.128450747285868, -0.03528485905756],
                            [37.128624649797118, -0.036132104884215],
                            [37.128758471007529, -0.036747445688524],
                            [37.12933367038675, -0.037362805977292],
                            [37.129962360030419, -0.038058450086407],
                            [37.12933808742995, -0.038709473375173],
                            [37.1299044481773, -0.038981464764859],
                            [37.130377066436914, -0.039275767404644],
                            [37.131572094684458, -0.040791859041403],
                            [37.133092639350927, -0.042334719368702],
                            [37.133551986412577, -0.042865319514095],
                            [37.133061476272701, -0.043623393283555],
                            [37.13286525492957, -0.04405589300716],
                            [37.132370323281869, -0.044408197933463],
                            [37.131821813011427, -0.044573198328893],
                            [37.132018037184253, -0.045594288357153],
                            [37.132009121638617, -0.045844019143756],
                            [37.13191996606551, -0.046160607395722],
                            [37.131924382947012, -0.046642172480309],
                            [37.131607757100554, -0.049348888903936],
                            [37.131906551819817, -0.050129218030318],
                            [37.13256646417188, -0.050249627016242],
                            [37.132455061443466, -0.050931835517726],
                            [37.132303416040855, -0.051894998924565],
                            [37.1322320918824, -0.052407841137489],
                            [37.132058198048874, -0.053375447764436],
                            [37.13188422201052, -0.054467931058542],
                            [37.131634585690755, -0.055988473398376],
                            [37.131277797299816, -0.058111016991742],
                            [37.130903257561066, -0.059988271626225],
                            [37.130649119100688, -0.059725214754591],
                            [37.130350319180181, -0.059265888803353],
                            [37.130180919600058, -0.059149966758542],
                            [37.129801875367107, -0.05951559430238],
                            [37.129659140245998, -0.059337245777261],
                            [37.129373750941994, -0.058989472707836],
                            [37.129048279798155, -0.058556936350933],
                            [37.128798551886156, -0.05817344785583],
                            [37.128803050765882, -0.057941566809518],
                            [37.12860681785245, -0.057812252482823],
                            [37.12827242724633, -0.05753130108988],
                            [37.127978116413907, -0.057415359650443],
                            [37.127697137622349, -0.057272696547272],
                            [37.127603559580209, -0.057134438135467],
                            [37.127442987888116, -0.056938262094377],
                            [37.127393908333751, -0.056728704344573],
                            [37.127126424196092, -0.056327392699311],
                            [37.126925769550247, -0.056144546974317],
                            [37.126350551009963, -0.055827971837754],
                            [37.126189976533084, -0.055609463903279],
                            [37.125868908301953, -0.055243827897312],
                            [37.125588003109364, -0.054824630947456],
                            [37.125052938678365, -0.054490237466722],
                            [37.124615951465678, -0.054343080496426],
                            [37.124259210227308, -0.054334130284806],
                            [37.124067464147195, -0.054414397450388],
                            [37.123933716050665, -0.054222694210929],
                            [37.123692887047504, -0.054035386949178],
                            [37.123692887047504, -0.053567175554852],
                            [37.12357697143463, -0.053174803736685],
                            [37.123220225066888, -0.052550522557308],
                            [37.123322807210577, -0.051970825295489],
                            [37.122983892922242, -0.051640845049099],
                            [37.122743142557603, -0.051337620171232],
                            [37.122765393395994, -0.050971996588964],
                            [37.122372976060191, -0.05081593730522],
                            [37.1219850559063, -0.050726756237922],
                            [37.121802220610746, -0.050312063647514],
                            [37.121592634339429, -0.049910745723028],
                            [37.121842387143744, -0.049518335591714],
                            [37.121721969264499, -0.04916157310819],
                            [37.121284961911577, -0.048867293842569],
                            [37.120941620509925, -0.048541759196823],
                            [37.120388687734533, -0.048729056639988],
                            [37.120170180357007, -0.048434747703012],
                            [37.120076592568154, -0.04791750985374],
                            [37.119813498982374, -0.047676700981826],
                            [37.119291726599243, -0.047502818152664],
                            [37.119224889067496, -0.047319956042399],
                            [37.119220389603868, -0.046833924624052],
                            [37.119211472468216, -0.0458351238192],
                            [37.119701994789246, -0.045478359952271],
                            [37.119380979558713, -0.04494328983494],
                            [37.119042046792032, -0.044492889086224],
                            [37.118796783812428, -0.044443888260212],
                            [37.11871652913343, -0.044252128498756],
                            [37.118703194244908, -0.043601103979298],
                            [37.118310754873434, -0.043141823833156],
                            [37.117548285799998, -0.042334722360092],
                            [37.117071165866903, -0.04236589506826],
                            [37.116977492253, -0.041710452436606],
                            [37.116674299822286, -0.041460706872717],
                            [37.116660882746899, -0.041077242326699],
                            [37.11661187768982, -0.040836450864135],
                            [37.116544955869152, -0.040395020152856],
                            [37.116215009120936, -0.040386049881856],
                            [37.115720045277612, -0.040452951759928],
                            [37.115617452345155, -0.039953537878281],
                            [37.115291919271463, -0.039248999253094],
                            [37.113909594119747, -0.037117579523187]
                        ]
                    ]
                ]
            }
        },
        {
            "type": "Feature",
            "properties": {
                "fid": null,
                "visibility": null,
                "tessellate": null,
                "icon": null,
                "layer": "Mawingu Sanctuary Area Polygons ?",
                "Name": null,
                "path": null,
                "Area": null,
                "extrude": null,
                "descriptio": null,
                "end": null,
                "begin": null,
                "altitudeMo": null,
                "timestamp": null
            },
            "geometry": {
                "type": "MultiPolygon",
                "coordinates": [
                    [
                        [
                            [37.133864105177693, -0.048341109374938],
                            [37.133873020507735, -0.048305426459289],
                            [37.134434847179364, -0.046263199573593],
                            [37.135308863816583, -0.045295559089143],
                            [37.136619787141512, -0.044408203197591],
                            [37.137386798761774, -0.044109435858978],
                            [37.137792547716231, -0.043618904842254],
                            [37.138095815156269, -0.042544283101286],
                            [37.138011083597291, -0.042067182715526],
                            [37.137698900961958, -0.041607877156045],
                            [37.137391215310899, -0.039659219374248],
                            [37.137605254081919, -0.039520989439038],
                            [37.138532802638458, -0.039061750588449],
                            [37.139696617547031, -0.041108471844326],
                            [37.139634215294286, -0.041549905178685],
                            [37.142626272926123, -0.044171867315954],
                            [37.144343020924502, -0.044889788072063],
                            [37.147179016856121, -0.044974489438668],
                            [37.147896932464889, -0.045085947134994],
                            [37.149404049536699, -0.045224192287665],
                            [37.15320768332969, -0.045041380743568],
                            [37.154469629364471, -0.044903142382161],
                            [37.156364755613218, -0.04591535228536],
                            [37.158134977850096, -0.048791472753738],
                            [37.16018167671097, -0.051226171305345],
                            [37.161675537254304, -0.052706589359952],
                            [37.159410328581473, -0.055845783480494],
                            [37.157359110727597, -0.05780334773494],
                            [37.156329023658543, -0.0625254895203],
                            [37.155686908432443, -0.062463063075924],
                            [37.154059395067897, -0.063203272893745],
                            [37.153176447164533, -0.062677143133515],
                            [37.151473074559711, -0.062275786895882],
                            [37.149323828849951, -0.060389598057757],
                            [37.148802106008908, -0.05927927681824],
                            [37.146777654842325, -0.060184509947514],
                            [37.146737502161351, -0.060193406323099],
                            [37.145096538717318, -0.058298310356556],
                            [37.145582632838071, -0.057513480401106],
                            [37.145341794222936, -0.056322923931115],
                            [37.144788884579164, -0.055123429628289],
                            [37.144779970605583, -0.053072244751563],
                            [37.144004123443644, -0.051413409872926],
                            [37.143807931825769, -0.050597433826389],
                            [37.142728827518482, -0.049010003155078],
                            [37.141538236571151, -0.048577458479776],
                            [37.14082925398025, -0.047895225463268],
                            [37.140231737107634, -0.047748080772942],
                            [37.140093438972329, -0.047690113278175],
                            [37.139500414224109, -0.047168392548174],
                            [37.137667739869002, -0.04836787855955],
                            [37.136900731240132, -0.04824748029951],
                            [37.135152807721859, -0.048804881196315],
                            [37.134140561454856, -0.048439215411196],
                            [37.133864105177693, -0.048341109374938]
                        ]
                    ]
                ]
            }
        }
    ]
}
