{
 "type": "FeatureCollection",
 "placeholder": true,
 "note": "PLACEHOLDER county boundaries (squares around catalog centroids). Replace with the real 10-county ASAL GeoJSON; keep a per-feature county_id or name matching the catalog.",
 "crs": {
  "type": "name",
  "properties": {
   "name": "urn:ogc:def:crs:OGC:1.3:CRS84"
  }
 },
 "features": [
  {
   "type": "Feature",
   "properties": {
    "county_id": "turkana",
    "name": "Turkana"
   },
   "geometry": {
    "type": "Polygon",
    "coordinates": [
     [
      [
       35.15,
       2.67
      ],
      [
       36.050000000000004,
       2.67
      ],
      [
       36.050000000000004,
       3.5700000000000003
      ],
      [
       35.15,
       3.5700000000000003
      ],
      [
       35.15,
       2.67
      ]
     ]
    ]
   }
  },
  {
   "type": "Feature",
   "properties": {
    "county_id": "marsabit",
    "name": "Marsabit"
   },
   "geometry": {
    "type": "Polygon",
    "coordinates": [
     [
      [
       37.54,
       1.8800000000000001
      ],
      [
       38.440000000000005,
       1.8800000000000001
      ],
      [
       38.440000000000005,
       2.7800000000000002
      ],
      [
       37.54,
       2.7800000000000002
      ],
      [
       37.54,
       1.8800000000000001
      ]
     ]
    ]
   }
  },
  {
   "type": "Feature",
   "properties": {
    "county_id": "mandera",
    "name": "Mandera"
   },
   "geometry": {
    "type": "Polygon",
    "coordinates": [
     [
      [
       41.419999999999995,
       3.4899999999999998
      ],
      [
       42.32,
       3.4899999999999998
      ],
      [
       42.32,
       4.39
      ],
      [
       41.419999999999995,
       4.39
      ],
      [
       41.419999999999995,
       3.4899999999999998
      ]
     ]
    ]
   }
  },
  {
   "type": "Feature",
   "properties": {
    "county_id": "wajir",
    "name": "Wajir"
   },
   "geometry": {
    "type": "Polygon",
    "coordinates": [
     [
      [
       39.61,
       1.3
      ],
      [
       40.510000000000005,
       1.3
      ],
      [
       40.510000000000005,
       2.2
      ],
      [
       39.61,
       2.2
      ],
      [
       39.61,
       1.3
      ]
     ]
    ]
   }
  },
  {
   "type": "Feature",
   "properties": {
    "county_id": "garissa",
    "name": "Garissa"
   },
   "geometry": {
    "type": "Polygon",
    "coordinates": [
     [
      [
       39.19,
       -0.9
      ],
      [
       40.09,
       -0.9
      ],
      [
       40.09,
       0.0
      ],
      [
       39.19,
       0.0
      ],
      [
       39.19,
       -0.9
      ]
     ]
    ]
   }
  },
  {
   "type": "Feature",
   "properties": {
    "county_id": "isiolo",
    "name": "Isiolo"
   },
   "geometry": {
    "type": "Polygon",
    "coordinates": [
     [
      [
       37.129999999999995,
       -0.10000000000000003
      ],
      [
       38.03,
       -0.10000000000000003
      ],
      [
       38.03,
       0.8
      ],
      [
       37.129999999999995,
       0.8
      ],
      [
       37.129999999999995,
       -0.10000000000000003
      ]
     ]
    ]
   }
  },
  {
   "type": "Feature",
   "properties": {
    "county_id": "samburu",
    "name": "Samburu"
   },
   "geometry": {
    "type": "Polygon",
    "coordinates": [
     [
      [
       36.5,
       0.72
      ],
      [
       37.400000000000006,
       0.72
      ],
      [
       37.400000000000006,
       1.6199999999999999
      ],
      [
       36.5,
       1.6199999999999999
      ],
      [
       36.5,
       0.72
      ]
     ]
    ]
   }
  },
  {
   "type": "Feature",
   "properties": {
    "county_id": "tana_river",
    "name": "Tana River"
   },
   "geometry": {
    "type": "Polygon",
    "coordinates": [
     [
      [
       39.5,
       -1.95
      ],
      [
       40.400000000000006,
       -1.95
      ],
      [
       40.400000000000006,
       -1.05
      ],
      [
       39.5,
       -1.05
      ],
      [
       39.5,
       -1.95
      ]
     ]
    ]
   }
  },
  {
   "type": "Feature",
   "properties": {
    "county_id": "makueni",
    "name": "Makueni"
   },
   "geometry": {
    "type": "Polygon",
    "coordinates": [
     [
      [
       37.169999999999995,
       -2.6300000000000003
      ],
      [
       38.07,
       -2.6300000000000003
      ],
      [
       38.07,
       -1.7300000000000002
      ],
      [
       37.169999999999995,
       -1.7300000000000002
      ],
      [
       37.169999999999995,
       -2.6300000000000003
      ]
     ]
    ]
   }
  },
  {
   "type": "Feature",
   "properties": {
    "county_id": "kitui",
    "name": "Kitui"
   },
   "geometry": {
    "type": "Polygon",
    "coordinates": [
     [
      [
       37.559999999999995,
       -1.82
      ],
      [
       38.46,
       -1.82
      ],
      [
       38.46,
       -0.9200000000000002
      ],
      [
       37.559999999999995,
       -0.9200000000000002
      ],
      [
       37.559999999999995,
       -1.82
      ]
     ]
    ]
   }
  }
 ]
}